GLOBALSTAR M068 [-]     
1 32266U 07048D   23276.80178395 -.00000082  00000+0  12218-3 0  9996
2 32266  51.9904  39.3984 0000963 158.1916 322.7776 12.62767097738924
GLOBALSTAR M079 [+]     
1 37188U 10054A   23276.86035968 -.00000079  00000+0  13969-3 0  9999
2 37188  52.0025 234.2494 0000627  51.6637 326.0639 12.62268287597862
GLOBALSTAR M074 [+]     
1 37189U 10054B   23276.60367053 -.00000092  00000+0  68216-4 0  9996
2 37189  52.0001 234.4496 0000529  70.4339 100.5501 12.62270165598503
GLOBALSTAR M076 [+]     
1 37190U 10054C   23276.91698574 -.00000085  00000+0  10485-3 0  9993
2 37190  52.0017 233.6098 0001079  69.5108 326.1427 12.62261616598194
GLOBALSTAR M077 [+]     
1 37191U 10054D   23276.91280414 -.00000069  00000+0  19430-3 0  9995
2 37191  52.0065 190.3018 0000690  75.9874 359.2729 12.62264288598569
GLOBALSTAR M075 [+]     
1 37192U 10054E   23276.72254111 -.00000098  00000+0  32554-4 0  9995
2 37192  51.9935 276.8075 0000489  53.3513 117.5980 12.62261844597392
GLOBALSTAR M073 [+]     
1 37193U 10054F   23276.93980899 -.00000068  00000+0  19961-3 0  9991
2 37193  52.0052 189.4887 0000713  67.6183  11.4437 12.62267938599252
GLOBALSTAR M083 [+]     
1 37739U 11033A   23276.95890235 -.00000086  00000+0  10055-3 0  9996
2 37739  51.9841 139.0108 0000582  69.6005  37.5825 12.62269713568279
GLOBALSTAR M088 [+]     
1 37740U 11033B   23276.67450450 -.00000108  00000+0 -25995-4 0  9994
2 37740  51.9748  45.8902 0000557  78.6333 294.9185 12.62265868563785
GLOBALSTAR M091 [+]     
1 37741U 11033C   23276.46529292 -.00000094  00000+0  54329-4 0  9999
2 37741  52.0025   8.9713 0000419  73.3063   8.3977 12.62266583564541
GLOBALSTAR M085 [+]     
1 37742U 11033D   23276.43689799 -.00000084  00000+0  11249-3 0  9998
2 37742  51.9879 320.6496 0000274  62.2785 311.1664 12.62263303565058
GLOBALSTAR M081 [+]     
1 37743U 11033E   23276.46325473 -.00000075  00000+0  16071-3 0  9996
2 37743  51.9971 322.9722 0000480  54.7183 318.3841 12.62264911565205
GLOBALSTAR M089 [+]     
1 37744U 11033F   23276.26607284 -.00000084  00000+0  11246-3 0  9997
2 37744  51.9918 277.9173 0000651  85.2819 290.9584 12.62267687566024
GLOBALSTAR M084 [+]     
1 38040U 11080A   23276.93187953 -.00000083  00000+0  11349-3 0  9992
2 38040  51.9992 142.8479 0001015  87.9005  14.6302 12.62266553544088
GLOBALSTAR M080 [+]     
1 38041U 11080B   23276.82106344 -.00000076  00000+0  15413-3 0  9994
2 38041  52.0045 144.5729 0001220  81.9122 357.1444 12.62265089544196
GLOBALSTAR M082 [+]     
1 38042U 11080C   23276.83970822 -.00000108  00000+0 -23066-4 0  9997
2 38042  52.0061  99.8938 0000223  88.8767  15.5849 12.62271443544906
GLOBALSTAR M092 [+]     
1 38043U 11080D   23276.51115028 -.00000067  00000+0  20481-3 0  9992
2 38043  52.0076 191.2378 0000827  93.7858  77.2601 12.62272496543318
GLOBALSTAR M090 [+]     
1 38044U 11080E   23276.70245727 -.00000113  00000+0 -51218-4 0  9990
2 38044  51.9870  94.9217 0000593  75.1362   5.7257 12.62278074545003
GLOBALSTAR M086 [+]     
1 38045U 11080F   23276.81270854 -.00000106  00000+0 -11123-4 0  9995
2 38045  51.9882  95.0884 0001485  50.1091  52.1563 12.62263042544961
GLOBALSTAR M097 [+]     
1 39072U 13005A   23276.57937912 -.00000092  00000+0  66440-4 0  9998
2 39072  52.0074   9.7156 0000410  69.5969 290.4942 12.62270724492264
GLOBALSTAR M093 [+]     
1 39073U 13005B   23276.55281745 -.00000087  00000+0  94591-4 0  9995
2 39073  51.9837   4.0962 0000450  41.0176 319.0724 12.62266989492132
GLOBALSTAR M094 [+]     
1 39074U 13005C   23276.47369118 -.00000096  00000+0  44463-4 0  9991
2 39074  51.9946 278.0986 0000439  50.8106 309.2800 12.62268139493733
GLOBALSTAR M096 [+]     
1 39075U 13005D   23276.48677231 -.00000082  00000+0  12034-3 0  9994
2 39075  52.0088 326.0866 0000354  52.7906 307.2993 12.62264403492650
GLOBALSTAR M078 [+]     
1 39076U 13005E   23276.69768775 -.00000105  00000+0 -43753-5 0  9993
2 39076  51.9883  50.7941 0000589 198.7992 161.2853 12.62261561491309
GLOBALSTAR M095 [+]     
1 39077U 13005F   23276.64530652 -.00000112  00000+0 -43962-4 0  9999
2 39077  51.9811  48.4624 0000051 100.7622 259.3250 12.62269040491153
GLOBALSTAR M087 [+]     
1 52888U 22064A   23276.61202317 -.00000091  00000+0  71206-4 0  9997
2 52888  51.9775  26.5175 0010073  72.9653 287.2350 13.37553681 63059
